NORAD_CAT_ID,OBJECT_NAME,OBJECT_TYPE,EPOCH,MEAN_MOTION,ECCENTRICITY,INCLINATION,RA_OF_ASC_NODE,ARG_OF_PERICENTER,MEAN_ANOMALY,BSTAR,MEAN_MOTION_DOT,MEAN_MOTION_DDOT,TLE_LINE0,TLE_LINE1,TLE_LINE2,SEMIMAJOR_AXIS,PERIOD,APOGEE,PERIGEE,DECAYED
52834.0,STARLINK-4108,PAYLOAD,2024-03-04 23:02:27,15.08832434,0.0001503,53.2161,92.4473,81.6164,278.4998,-3.3477e-05,-8.21e-06,0.0,0 STARLINK-4108,1 52834U 22062E   24064.96003776 -.00000821  00000-0 -33477-4 0  9999,2 52834  53.2161  92.4473 0001503  81.6164 278.4998 15.08832434 94868,6917.904,95.438,540.808,538.729,0.0
52834.0,STARLINK-4108,PAYLOAD,2024-03-05 02:13:13,15.08830234,0.0001553,53.215,91.8535,84.721,275.396,-7.2356e-05,-1.439e-05,0.0,0 STARLINK-4108,1 52834U 22062E   24065.09251520 -.00001439  00000-0 -72356-4 0  9991,2 52834  53.2150  91.8535 0001553  84.7210 275.3960 15.08830234 94882,6917.91,95.438,540.85,538.701,0.0
52834.0,STARLINK-4108,PAYLOAD,2024-03-05 11:45:32,15.08826042,0.0001512,53.2156,90.069,85.6857,274.4308,-3.729e-05,-8.81e-06,0.0,0 STARLINK-4108,1 52834U 22062E   24065.48996467 -.00000881  00000-0 -37290-4 0  9998,2 52834  53.2156  90.0690 0001512  85.6857 274.4308 15.08826042 94948,6917.923,95.438,540.834,538.742,0.0
52834.0,STARLINK-4108,PAYLOAD,2024-03-06 00:28:37,15.0884034,0.0001408,53.215,87.6916,95.0531,265.0622,1.3804e-05,-6.8e-07,0.0,0 STARLINK-4108,1 52834U 22062E   24066.01987322 -.00000068  00000-0  13804-4 0  9999,2 52834  53.2150  87.6916 0001408  95.0531 265.0622 15.08840340 95025,6917.879,95.438,540.718,538.77,0.0
52834.0,STARLINK-4108,PAYLOAD,2024-03-06 11:36:18,15.08852881,0.0001485,53.2148,85.6103,95.9978,264.1184,0.00024211,3.569e-05,0.0,0 STARLINK-4108,1 52834U 22062E   24066.48354742  .00003569  00000-0  24211-3 0  9995,2 52834  53.2148  85.6103 0001485  95.9978 264.1184 15.08852881 95090,6917.841,95.437,540.733,538.679,0.0
52834.0,STARLINK-4108,PAYLOAD,2024-03-07 01:54:47,15.08832498,0.000168,53.2145,82.9327,105.781,254.3368,0.0001697,2.413e-05,0.0,0 STARLINK-4108,1 52834U 22062E   24067.07971989  .00002413  00000-0  16970-3 0  9999,2 52834  53.2145  82.9327 0001680 105.7810 254.3368 15.08832498 95184,6917.903,95.438,540.931,538.606,0.0
52834.0,STARLINK-4108,PAYLOAD,2024-03-07 08:16:20,15.08834787,0.0001412,53.215,81.7456,95.0432,265.0722,7.4291e-05,8.94e-06,0.0,0 STARLINK-4108,1 52834U 22062E   24067.34467995  .00000894  00000-0  74291-4 0  9998,2 52834  53.2150  81.7456 0001412  95.0432 265.0722 15.08834787 95225,6917.896,95.438,540.738,538.785,0.0
52834.0,STARLINK-4108,PAYLOAD,2024-03-08 04:56:20,15.08843158,0.0001386,53.2149,77.8793,94.476,265.639,0.00015006,2.101e-05,0.0,0 STARLINK-4108,1 52834U 22062E   24068.20579825  .00002101  00000-0  15006-3 0  9991,2 52834  53.2149  77.8793 0001386  94.4760 265.6390 15.08843158 95353,6917.871,95.437,540.695,538.777,0.0
52834.0,STARLINK-4108,PAYLOAD,2024-03-08 09:42:30,15.08846847,0.0001504,53.2154,76.9855,92.8434,267.273,0.0003693,5.595e-05,0.0,0 STARLINK-4108,1 52834U 22062E   24068.40451812  .00005595  00000-0  36930-3 0  9997,2 52834  53.2154  76.9855 0001504  92.8434 267.2730 15.08846847 95387,6917.859,95.437,540.765,538.684,0.0
52834.0,STARLINK-4108,PAYLOAD,2024-03-08 17:39:26,15.08843593,0.0001413,53.2147,75.4983,103.763,256.3519,0.00025981,3.85e-05,0.0,0 STARLINK-4108,1 52834U 22062E   24068.73571853  .00003850  00000-0  25981-3 0  9997,2 52834  53.2147  75.4983 0001413 103.7630 256.3519 15.08843593 95439,6917.869,95.437,540.712,538.757,0.0
52834.0,STARLINK-4108,PAYLOAD,2024-03-09 06:22:31,15.08843469,0.0001375,53.2143,73.1211,94.4956,265.6193,0.00021651,3.16e-05,0.0,0 STARLINK-4108,1 52834U 22062E   24069.26563933  .00003160  00000-0  21651-3 0  9990,2 52834  53.2143  73.1211 0001375  94.4956 265.6193 15.08843469 95510,6917.87,95.437,540.686,538.784,0.0
52834.0,STARLINK-4108,PAYLOAD,2024-03-09 07:57:54,15.08846139,0.000144,53.2148,72.8235,93.5966,266.5191,0.00026023,3.857e-05,0.0,0 STARLINK-4108,1 52834U 22062E   24069.33187809  .00003857  00000-0  26023-3 0  9993,2 52834  53.2148  72.8235 0001440  93.5966 266.5191 15.08846139 95527,6917.862,95.437,540.723,538.73,0.0
52834.0,STARLINK-4108,PAYLOAD,2024-03-09 17:30:13,15.08843578,0.0001364,53.2151,71.0369,95.5789,264.5359,0.00014835,2.074e-05,0.0,0 STARLINK-4108,1 52834U 22062E   24069.72931745  .00002074  00000-0  14835-3 0  9990,2 52834  53.2151  71.0369 0001364  95.5789 264.5359 15.08843578 95584,6917.869,95.437,540.678,538.791,0.0
52834.0,STARLINK-4108,PAYLOAD,2024-03-10 09:24:04,15.08851237,0.0001494,53.2158,68.0628,97.842,262.2742,0.00022362,3.274e-05,0.0,0 STARLINK-4108,1 52834U 22062E   24070.39171352  .00003274  00000-0  22362-3 0  9992,2 52834  53.2158  68.0628 0001494  97.8420 262.2742 15.08851237 95689,6917.846,95.437,540.745,538.678,0.0
52834.0,STARLINK-4108,PAYLOAD,2024-03-10 17:20:59,15.08842333,0.0001393,53.2156,66.5755,108.1972,251.9172,7.0161e-05,8.29e-06,0.0,0 STARLINK-4108,1 52834U 22062E   24070.72291516  .00000829  00000-0  70161-4 0  9998,2 52834  53.2156  66.5755 0001393 108.1972 251.9172 15.08842333 95732,6917.873,95.437,540.702,538.775,0.0
52834.0,STARLINK-4108,PAYLOAD,2024-03-11 06:04:05,15.08839652,0.0001337,53.2166,64.1975,104.1097,256.0043,7.6603e-05,9.31e-06,0.0,0 STARLINK-4108,1 52834U 22062E   24071.25283701  .00000931  00000-0  76603-4 0  9995,2 52834  53.2166  64.1975 0001337 104.1097 256.0043 15.08839652 95815,6917.881,95.438,540.671,538.822,0.0
52834.0,STARLINK-4108,PAYLOAD,2024-03-12 04:19:29,15.08836356,0.0001584,53.217,60.0343,104.7998,255.317,1.0952e-05,-1.14e-06,0.0,0 STARLINK-4108,1 52834U 22062E   24072.18020187 -.00000114  00000-0  10952-4 0  9994,2 52834  53.2170  60.0343 0001584 104.7998 255.3170 15.08836356 95950,6917.892,95.438,540.852,538.661,0.0
52834.0,STARLINK-4108,PAYLOAD,2024-03-12 09:05:38,15.08839172,0.0001599,53.2172,59.1422,105.1555,254.9614,-2.1013e-05,-6.22e-06,0.0,0 STARLINK-4108,1 52834U 22062E   24072.37892080 -.00000622  00000-0 -21013-4 0  9999,2 52834  53.2172  59.1422 0001599 105.1555 254.9614 15.08839172 95989,6917.883,95.438,540.854,538.642,0.0
52834.0,STARLINK-4108,PAYLOAD,2024-03-13 05:45:39,15.08841325,0.0001407,53.2167,55.2768,92.2352,267.8801,0.00016497,2.339e-05,0.0,0 STARLINK-4108,1 52834U 22062E   24073.24004251  .00002339  00000-0  16497-3 0  9995,2 52834  53.2167  55.2768 0001407  92.2352 267.8801 15.08841325 96112,6917.876,95.437,540.715,538.768,0.0
52834.0,STARLINK-4108,PAYLOAD,2024-03-13 21:39:31,15.08840603,0.0001521,53.2176,52.3082,106.2485,253.8674,3.2161e-05,2.24e-06,0.0,0 STARLINK-4108,1 52834U 22062E   24073.90244432  .00000224  00000-0  32161-4 0  9993,2 52834  53.2176  52.3082 0001521 106.2485 253.8674 15.08840603 96211,6917.879,95.438,540.796,538.691,0.0
52834.0,STARLINK-4108,PAYLOAD,2024-03-14 05:36:27,15.08837374,0.0001695,53.218,50.8213,111.5474,248.5699,0.00010316,1.354e-05,0.0,0 STARLINK-4108,1 52834U 22062E   24074.23364592  .00001354  00000-0  10316-3 0  9992,2 52834  53.2180  50.8213 0001695 111.5474 248.5699 15.08837374 96268,6917.888,95.438,540.926,538.581,0.0
52834.0,STARLINK-4108,PAYLOAD,2024-03-14 07:11:50,15.08840886,0.0001725,53.2188,50.5234,109.5253,250.5925,0.00012447,1.693e-05,0.0,0 STARLINK-4108,1 52834U 22062E   24074.29988492  .00001693  00000-0  12447-3 0  9992,2 52834  53.2188  50.5234 0001725 109.5253 250.5925 15.08840886 96270,6917.878,95.437,540.936,538.549,0.0
52834.0,STARLINK-4108,PAYLOAD,2024-03-15 08:37:59,15.08848346,0.0001442,53.2179,45.7636,96.1561,263.9596,0.0001004,1.311e-05,0.0,0 STARLINK-4108,1 52834U 22062E   24075.35972204  .00001311  00000-0  10040-3 0  9998,2 52834  53.2179  45.7636 0001442  96.1561 263.9596 15.08848346 96430,6917.855,95.437,540.717,538.722,0.0
52834.0,STARLINK-4108,PAYLOAD,2024-03-16 05:18:01,15.08846562,0.0001898,53.2183,41.8972,97.8004,262.3204,3.4289e-05,2.58e-06,0.0,0 STARLINK-4108,1 52834U 22062E   24076.22084610  .00000258  00000-0  34289-4 0  9991,2 52834  53.2183  41.8972 0001898  97.8004 262.3204 15.08846562 96561,6917.86,95.437,541.038,538.412,0.0
52834.0,STARLINK-4108,PAYLOAD,2024-03-16 06:53:23,15.08852254,0.0001945,53.2175,41.5973,100.5952,259.5259,-1.24e-05,-4.86e-06,0.0,0 STARLINK-4108,1 52834U 22062E   24076.28708243 -.00000486  00000-0 -12400-4 0  9998,2 52834  53.2175  41.5973 0001945 100.5952 259.5259 15.08852254 96571,6917.843,95.437,541.053,538.362,0.0
52834.0,STARLINK-4108,PAYLOAD,2024-03-17 05:08:48,15.0884188,0.0001851,53.2193,37.431,71.4197,288.6996,6.6055e-05,7.63e-06,0.0,0 STARLINK-4108,1 52834U 22062E   24077.21444972  .00000763  00000-0  66055-4 0  9999,2 52834  53.2193  37.4310 0001851  71.4197 288.6996 15.08841880 96713,6917.875,95.437,541.02,538.459,0.0
52834.0,STARLINK-4108,PAYLOAD,2024-03-17 06:44:11,15.08842835,0.0001833,53.2191,37.1334,72.0857,288.0335,7.2174e-05,8.61e-06,0.0,0 STARLINK-4108,1 52834U 22062E   24077.28068872  .00000861  00000-0  72174-4 0  9995,2 52834  53.2191  37.1334 0001833  72.0857 288.0335 15.08842835 96727,6917.872,95.437,541.005,538.469,0.0
52834.0,STARLINK-4108,PAYLOAD,2024-03-18 03:24:11,15.08846751,0.0001762,53.2196,33.2661,76.9028,283.216,9.7635e-05,1.266e-05,0.0,0 STARLINK-4108,1 52834U 22062E   24078.14180312  .00001266  00000-0  97635-4 0  9994,2 52834  53.2196  33.2661 0001762  76.9028 283.2160 15.08846751 96854,6917.86,95.437,540.944,538.506,0.0
52834.0,STARLINK-4108,PAYLOAD,2024-03-18 20:53:26,15.08844259,0.0001525,53.2177,30.0006,84.2529,275.8637,5.1463e-05,5.31e-06,0.0,0 STARLINK-4108,1 52834U 22062E   24078.87044492  .00000531  00000-0  51463-4 0  9995,2 52834  53.2177  30.0006 0001525  84.2529 275.8637 15.08844259 96965,6917.867,95.437,540.787,538.677,0.0
52834.0,STARLINK-4108,PAYLOAD,2024-03-19 06:25:44,15.08850433,0.0001411,53.2175,28.216,93.1181,266.9973,9.2425e-05,1.184e-05,0.0,0 STARLINK-4108,1 52834U 22062E   24079.26787799  .00001184  00000-0  92425-4 0  9991,2 52834  53.2175  28.2160 0001411  93.1181 266.9973 15.08850433 97023,6917.848,95.437,540.69,538.737,0.0
